[{"OBJECT_NAME":"JIAOTONG 5 (HEAD-2H)","OBJECT_ID":"2022-167K","EPOCH":"2026-03-09T23:22:06.822048","MEAN_MOTION":15.70872056,"ECCENTRICITY":0.00036843,"INCLINATION":97.6162,"RA_OF_ASC_NODE":251.2696,"ARG_OF_PERICENTER":321.7019,"MEAN_ANOMALY":38.3981,"EPHEMERIS_TYPE":0,"CLASSIFICATION_TYPE":"U","NORAD_CAT_ID":54691,"ELEMENT_SET_NO":999,"REV_AT_EPOCH":18142,"BSTAR":0.0011277683,"MEAN_MOTION_DOT":0.00142368,"MEAN_MOTION_DDOT":0},{"OBJECT_NAME":"STARLINK-11361 [DTC]","OBJECT_ID":"2024-187M","EPOCH":"2026-03-09T21:55:45.724224","MEAN_MOTION":15.69721915,"ECCENTRICITY":6.811e-5,"INCLINATION":53.1569,"RA_OF_ASC_NODE":295.2801,"ARG_OF_PERICENTER":91.393,"MEAN_ANOMALY":268.7166,"EPHEMERIS_TYPE":0,"CLASSIFICATION_TYPE":"U","NORAD_CAT_ID":61585,"ELEMENT_SET_NO":999,"REV_AT_EPOCH":8078,"BSTAR":0.0014910823,"MEAN_MOTION_DOT":0.00184212,"MEAN_MOTION_DDOT":0}]
